{"type": "FeatureCollection", "features": [ {"type": "Feature", "properties": {"norad_id": 28649, "name": "IRS-P5 (CARTOSAT-1)", "group": "resource", "lat": -12.858247901478176, "lon": 21.69515805744309, "alt_km": 600.8503704071682, "timestamp": "2025-12-19T20:42:59.737570+00:00", "meta": {"OBJECT_NAME": "IRS-P5 (CARTOSAT-1)", "OBJECT_ID": "2005-017A", "EPOCH": "2025-12-19T01:26:21.591168", "MEAN_MOTION": 14.90425359, "ECCENTRICITY": 8.495e-05, "INCLINATION": 97.5487, "RA_OF_ASC_NODE": 19.193, "ARG_OF_PERICENTER": 48.6055, "MEAN_ANOMALY": 311.5236, "EPHEMERIS_TYPE": 0, "CLASSIFICATION_TYPE": "U", "NORAD_CAT_ID": 28649, "ELEMENT_SET_NO": 999, "REV_AT_EPOCH": 11698, "BSTAR": 0.00012132886, "MEAN_MOTION_DOT": 1.13e-05, "MEAN_MOTION_DDOT": 0}, "tle": {"line1": "1 28649U 05017A   25353.05997212  .00001130  00000+0  12133-3 0  9992", "line2": "2 28649  97.5487  19.1930 0000849  48.6055 311.5236 14.90425359116981"}}, "geometry": {"type": "Point", "coordinates": [21.69515805744309, -12.858247901478176]}}, {"type": "Feature", "properties": {"norad_id": 28893, "name": "SINAH 1", "group": "resource", "lat": 23.063747842998097, "lon": 118.8929636345946, "alt_km": 680.4450992846223, "timestamp": "2025-12-19T20:42:59.737580+00:00", "meta": {"OBJECT_NAME": "SINAH 1", "OBJECT_ID": "2005-043D", "EPOCH": "2025-12-19T07:29:14.925984", "MEAN_MOTION": 14.63969123, "ECCENTRICITY": 0.00156038, "INCLINATION": 98.2607, "RA_OF_ASC_NODE": 121.8869, "ARG_OF_PERICENTER": 117.7351, "MEAN_ANOMALY": 242.5436, "EPHEMERIS_TYPE": 0, "CLASSIFICATION_TYPE": "U", "NORAD_CAT_ID": 28893, "ELEMENT_SET_NO": 999, "REV_AT_EPOCH": 7420, "BSTAR": 6.8831896e-05, "MEAN_MOTION_DOT": 3.12e-06, "MEAN_MOTION_DDOT": 0}, "tle": {"line1": "1 28893U 05043D   25353.31197831  .00000312  00000+0  68832-4 0  9999", "line2": "2 28893  98.2607 121.8869 0015603 117.7351 242.5436 14.63969123 74202"}}, "geometry": {"type": "Point", "coordinates": [118.8929636345946, 23.063747842998097]}}, {"type": "Feature", "properties": {"norad_id": 29079, "name": "EROS B", "group": "resource", "lat": -32.10930562349577, "lon": -73.85680299031222, "alt_km": 364.0473374870926, "timestamp": "2025-12-19T20:42:59.737592+00:00", "meta": {"OBJECT_NAME": "EROS B", "OBJECT_ID": "2006-014A", "EPOCH": "2025-12-19T07:34:49.775232", "MEAN_MOTION": 15.70309739, "ECCENTRICITY": 0.00033826, "INCLINATION": 97.3468, "RA_OF_ASC_NODE": 110.2123, "ARG_OF_PERICENTER": 310.7208, "MEAN_ANOMALY": 49.376, "EPHEMERIS_TYPE": 0, "CLASSIFICATION_TYPE": "U", "NORAD_CAT_ID": 29079, "ELEMENT_SET_NO": 999, "REV_AT_EPOCH": 9183, "BSTAR": 0.0010900706, "MEAN_MOTION_DOT": 0.00134289, "MEAN_MOTION_DDOT": 0}, "tle": {"line1": "1 29079U 06014A   25353.31585388  .00134289  00000+0  10901-2 0  9996", "line2": "2 29079  97.3468 110.2123 0003382 310.7208  49.3760 15.70309739 91837"}}, "geometry": {"type": "Point", "coordinates": [-73.85680299031222, -32.10930562349577]}}, {"type": "Feature", "properties": {"norad_id": 29228, "name": "RESURS-DK 1", "group": "resource", "lat": 58.56023637275319, "lon": -133.2899453210598, "alt_km": 526.7744547766979, "timestamp": "2025-12-19T20:42:59.737603+00:00", "meta": {"OBJECT_NAME": "RESURS-DK 1", "OBJECT_ID": "2006-021A", "EPOCH": "2025-12-19T05:55:22.529856", "MEAN_MOTION": 15.12195361, "ECCENTRICITY": 0.00068759, "INCLINATION": 69.9339, "RA_OF_ASC_NODE": 85.022, "ARG_OF_PERICENTER": 253.8547, "MEAN_ANOMALY": 106.1863, "EPHEMERIS_TYPE": 0, "CLASSIFICATION_TYPE": "U", "NORAD_CAT_ID": 29228, "ELEMENT_SET_NO": 999, "REV_AT_EPOCH": 7536, "BSTAR": 0.00011683475, "MEAN_MOTION_DOT": 1.915e-05, "MEAN_MOTION_DDOT": 0}, "tle": {"line1": "1 29228U 06021A   25353.24678854  .00001915  00000+0  11683-3 0  9991", "line2": "2 29228  69.9339  85.0220 0006875 253.8547 106.1863 15.12195361 75361"}}, "geometry": {"type": "Point", "coordinates": [-133.2899453210598, 58.56023637275319]}}, {"type": "Feature", "properties": {"norad_id": 29268, "name": "ARIRANG-2 (KOMPSAT-2)", "group": "resource", "lat": -56.792567702995285, "lon": -165.8836441395266, "alt_km": 676.8610551161355, "timestamp": "2025-12-19T20:42:59.737614+00:00", "meta": {"OBJECT_NAME": "ARIRANG-2 (KOMPSAT-2)", "OBJECT_ID": "2006-031A", "EPOCH": "2025-12-19T08:25:12.253728", "MEAN_MOTION": 14.64499138, "ECCENTRICITY": 0.00132307, "INCLINATION": 97.8254, "RA_OF_ASC_NODE": 181.5009, "ARG_OF_PERICENTER": 286.542, "MEAN_ANOMALY": 196.2446, "EPHEMERIS_TYPE": 0, "CLASSIFICATION_TYPE": "U", "NORAD_CAT_ID": 29268, "ELEMENT_SET_NO": 999, "REV_AT_EPOCH": 3515, "BSTAR": 4.9019553e-05, "MEAN_MOTION_DOT": 2.15e-06, "MEAN_MOTION_DDOT": 0}, "tle": {"line1": "1 29268U 06031A   25353.35083627  .00000215  00000+0  49020-4 0  9995", "line2": "2 29268  97.8254 181.5009 0013230 286.5420 196.2446 14.64499138 35159"}}, "geometry": {"type": "Point", "coordinates": [-165.8836441395266, -56.792567702995285]}}, {"type": "Feature", "properties": {"norad_id": 29709, "name": "LAPAN-TUBSAT", "group": "resource", "lat": 58.51934958534704, "lon": -29.32555568588548, "alt_km": 596.4812200747838, "timestamp": "2025-12-19T20:42:59.737624+00:00", "meta": {"OBJECT_NAME": "LAPAN-TUBSAT", "OBJECT_ID": "2007-001A", "EPOCH": "2025-12-19T05:54:10.055808", "MEAN_MOTION": 14.85678566, "ECCENTRICITY": 0.00134388, "INCLINATION": 98.1251, "RA_OF_ASC_NODE": 343.5366, "ARG_OF_PERICENTER": 54.7711, "MEAN_ANOMALY": 305.476, "EPHEMERIS_TYPE": 0, "CLASSIFICATION_TYPE": "U", "NORAD_CAT_ID": 29709, "ELEMENT_SET_NO": 999, "REV_AT_EPOCH": 2443, "BSTAR": 2.4501631e-05, "MEAN_MOTION_DOT": 1.55e-06, "MEAN_MOTION_DDOT": 0}, "tle": {"line1": "1 29709U 07001A   25353.24594972  .00000155  00000+0  24502-4 0  9992", "line2": "2 29709  98.1251 343.5366 0013438  54.7711 305.4760 14.85678566 24433"}}, "geometry": {"type": "Point", "coordinates": [-29.32555568588548, 58.51934958534704]}}, {"type": "Feature", "properties": {"norad_id": 31113, "name": "HAIYANG-1B", "group": "resource", "lat": -16.233532950846698, "lon": -19.707307802032567, "alt_km": 784.9879462683612, "timestamp": "2025-12-19T20:42:59.737636+00:00", "meta": {"OBJECT_NAME": "HAIYANG-1B", "OBJECT_ID": "2007-010A", "EPOCH": "2025-12-18T22:58:37.050528", "MEAN_MOTION": 14.3096715, "ECCENTRICITY": 0.00139689, "INCLINATION": 98.3319, "RA_OF_ASC_NODE": 336.9788, "ARG_OF_PERICENTER": 20.3942, "MEAN_ANOMALY": 339.7797, "EPHEMERIS_TYPE": 0, "CLASSIFICATION_TYPE": "U", "NORAD_CAT_ID": 31113, "ELEMENT_SET_NO": 999, "REV_AT_EPOCH": 97485, "BSTAR": 4.9048462e-05, "MEAN_MOTION_DOT": 8.7e-07, "MEAN_MOTION_DDOT": 0}, "tle": {"line1": "1 31113U 07010A   25352.95737327  .00000087  00000+0  49048-4 0  9990", "line2": "2 31113  98.3319 336.9788 0013968  20.3942 339.7797 14.30967150974859"}}, "geometry": {"type": "Point", "coordinates": [-19.707307802032567, -16.233532950846698]}}, {"type": "Feature", "properties": {"norad_id": 31598, "name": "COSMO-SKYMED 1", "group": "resource", "lat": -80.93178135435872, "lon": -120.4446530357547, "alt_km": 588.2669004740346, "timestamp": "2025-12-19T20:42:59.737646+00:00", "meta": {"OBJECT_NAME": "COSMO-SKYMED 1", "OBJECT_ID": "2007-023A", "EPOCH": "2025-12-19T06:38:57.530400", "MEAN_MOTION": 14.95814401, "ECCENTRICITY": 0.00015764, "INCLINATION": 97.8836, "RA_OF_ASC_NODE": 178.719, "ARG_OF_PERICENTER": 86.1612, "MEAN_ANOMALY": 273.9789, "EPHEMERIS_TYPE": 0, "CLASSIFICATION_TYPE": "U", "NORAD_CAT_ID": 31598, "ELEMENT_SET_NO": 999, "REV_AT_EPOCH": 288, "BSTAR": 0.00030160591, "MEAN_MOTION_DOT": 3.308e-05, "MEAN_MOTION_DDOT": 0}, "tle": {"line1": "1 31598U 07023A   25353.27705475  .00003308  00000+0  30161-3 0  9990", "line2": "2 31598  97.8836 178.7190 0001576  86.1612 273.9789 14.95814401  2885"}}, "geometry": {"type": "Point", "coordinates": [-120.4446530357547, -80.93178135435872]}}, {"type": "Feature", "properties": {"norad_id": 31698, "name": "TERRASAR-X", "group": "resource", "lat": 11.544811589144475, "lon": -179.3290874896459, "alt_km": 509.6713544641507, "timestamp": "2025-12-19T20:42:59.737657+00:00", "meta": {"OBJECT_NAME": "TERRASAR-X", "OBJECT_ID": "2007-026A", "EPOCH": "2025-12-18T12:21:42.553440", "MEAN_MOTION": 15.19151199, "ECCENTRICITY": 0.00018406, "INCLINATION": 97.4454, "RA_OF_ASC_NODE": 357.8116, "ARG_OF_PERICENTER": 91.5233, "MEAN_ANOMALY": 268.6213, "EPHEMERIS_TYPE": 0, "CLASSIFICATION_TYPE": "U", "NORAD_CAT_ID": 31698, "ELEMENT_SET_NO": 999, "REV_AT_EPOCH": 2579, "BSTAR": 3.8823467e-05, "MEAN_MOTION_DOT": 7.48e-06, "MEAN_MOTION_DDOT": 0}, "tle": {"line1": "1 31698U 07026A   25352.51507585  .00000748  00000+0  38823-4 0  9991", "line2": "2 31698  97.4454 357.8116 0001840  91.5233 268.6213 15.19151199 25792"}}, "geometry": {"type": "Point", "coordinates": [-179.3290874896459, 11.544811589144475]}}, {"type": "Feature", "properties": {"norad_id": 32060, "name": "WORLDVIEW-1 (WV-1)", "group": "resource", "lat": -46.71725899536087, "lon": 119.15913860845188, "alt_km": 498.8635800363709, "timestamp": "2025-12-19T20:42:59.737667+00:00", "meta": {"OBJECT_NAME": "WORLDVIEW-1 (WV-1)", "OBJECT_ID": "2007-041A", "EPOCH": "2025-12-19T06:44:54.483360", "MEAN_MOTION": 15.24792332, "ECCENTRICITY": 9.536e-05, "INCLINATION": 97.3841, "RA_OF_ASC_NODE": 110.6704, "ARG_OF_PERICENTER": 118.2645, "MEAN_ANOMALY": 241.869, "EPHEMERIS_TYPE": 0, "CLASSIFICATION_TYPE": "U", "NORAD_CAT_ID": 32060, "ELEMENT_SET_NO": 999, "REV_AT_EPOCH": 1547, "BSTAR": 0.00027187849, "MEAN_MOTION_DOT": 6.672e-05, "MEAN_MOTION_DDOT": 0}, "tle": {"line1": "1 32060U 07041A   25353.28118615  .00006672  00000+0  27188-3 0  9992", "line2": "2 32060  97.3841 110.6704 0000953 118.2645 241.8690 15.24792332 15473"}}, "geometry": {"type": "Point", "coordinates": [119.15913860845188, -46.71725899536087]}}]}